{
  "type": "FeatureCollection",
  "features": [
    {
      "type": "Feature",
      "properties": {
        "norad_id": 58701,
        "name": "TIANMU-1 16",
        "group": "weather",
        "lat": 81.84326580182469,
        "lon": 92.06338296691804,
        "alt_km": 486.9430973473436,
        "timestamp": "2025-12-03T04:52:29.284483+00:00",
        "meta_object_name": "TIANMU-1 16",
        "meta_object_id": "2024-004B",
        "meta_epoch": "2025-12-02T23:46:09.262272",
        "meta_mean_motion": 15.24215807,
        "meta_eccentricity": 0.0005055,
        "meta_inclination": 97.4572,
        "meta_ra_of_asc_node": 157.8955,
        "meta_arg_of_pericenter": 336.3217,
        "meta_mean_anomaly": 23.7787,
        "meta_ephemeris_type": 0,
        "meta_classification_type": "U",
        "meta_norad_cat_id": 58701,
        "meta_element_set_no": 999,
        "meta_rev_at_epoch": 10586,
        "meta_bstar": 6.5909e-05,
        "meta_mean_motion_dot": 1.535e-05,
        "meta_mean_motion_ddot": 0,
        "tle_line1": "1 58701U 24004B   25336.99038498  .00001535  00000+0  65909-4 0  9996",
        "tle_line2": "2 58701  97.4572 157.8955 0005055 336.3217  23.7787 15.24215807105866"
      },
      "geometry": {
        "type": "Point",
        "coordinates": [
          92.06338296691804,
          81.84326580182469
        ]
      }
    },
    {
      "type": "Feature",
      "properties": {
        "norad_id": 58702,
        "name": "TIANMU-1 17",
        "group": "weather",
        "lat": 10.18608683688405,
        "lon": -20.138881935375686,
        "alt_km": 497.5936260684821,
        "timestamp": "2025-12-03T04:52:29.284493+00:00",
        "meta_object_name": "TIANMU-1 17",
        "meta_object_id": "2024-004C",
        "meta_epoch": "2025-12-02T20:15:19.028736",
        "meta_mean_motion": 15.2426635,
        "meta_eccentricity": 0.000436,
        "meta_inclination": 97.46,
        "meta_ra_of_asc_node": 158.1546,
        "meta_arg_of_pericenter": 341.0029,
        "meta_mean_anomaly": 19.1045,
        "meta_ephemeris_type": 0,
        "meta_classification_type": "U",
        "meta_norad_cat_id": 58702,
        "meta_element_set_no": 999,
        "meta_rev_at_epoch": 10583,
        "meta_bstar": 0.00037793,
        "meta_mean_motion_dot": 9.16e-05,
        "meta_mean_motion_ddot": 0,
        "tle_line1": "1 58702U 24004C   25336.84397024  .00009160  00000+0  37793-3 0  9995",
        "tle_line2": "2 58702  97.4600 158.1546 0004360 341.0029  19.1045 15.24266350105833"
      },
      "geometry": {
        "type": "Point",
        "coordinates": [
          -20.138881935375686,
          10.18608683688405
        ]
      }
    },
    {
      "type": "Feature",
      "properties": {
        "norad_id": 58703,
        "name": "TIANMU-1 18",
        "group": "weather",
        "lat": -78.67639778967802,
        "lon": -62.17725407783332,
        "alt_km": 499.9023069130553,
        "timestamp": "2025-12-03T04:52:29.284508+00:00",
        "meta_object_name": "TIANMU-1 18",
        "meta_object_id": "2024-004D",
        "meta_epoch": "2025-12-02T19:51:11.484864",
        "meta_mean_motion": 15.24258614,
        "meta_eccentricity": 0.0003726,
        "meta_inclination": 97.4617,
        "meta_ra_of_asc_node": 158.331,
        "meta_arg_of_pericenter": 342.7195,
        "meta_mean_anomaly": 17.3915,
        "meta_ephemeris_type": 0,
        "meta_classification_type": "U",
        "meta_norad_cat_id": 58703,
        "meta_element_set_no": 999,
        "meta_rev_at_epoch": 10583,
        "meta_bstar": 0.00034744,
        "meta_mean_motion_dot": 8.412e-05,
        "meta_mean_motion_ddot": 0,
        "tle_line1": "1 58703U 24004D   25336.82721626  .00008412  00000+0  34744-3 0  9995",
        "tle_line2": "2 58703  97.4617 158.3310 0003726 342.7195  17.3915 15.24258614105830"
      },
      "geometry": {
        "type": "Point",
        "coordinates": [
          -62.17725407783332,
          -78.67639778967802
        ]
      }
    },
    {
      "type": "Feature",
      "properties": {
        "norad_id": 58990,
        "name": "INSAT-3DS",
        "group": "weather",
        "lat": -0.028013101853115917,
        "lon": -132.50704873922092,
        "alt_km": 35780.56483527723,
        "timestamp": "2025-12-03T04:52:29.284520+00:00",
        "meta_object_name": "INSAT-3DS",
        "meta_object_id": "2024-033A",
        "meta_epoch": "2025-12-02T20:20:52.842048",
        "meta_mean_motion": 1.00269649,
        "meta_eccentricity": 0.0001635,
        "meta_inclination": 0.0139,
        "meta_ra_of_asc_node": 270.8956,
        "meta_arg_of_pericenter": 344.3356,
        "meta_mean_anomaly": 204.0476,
        "meta_ephemeris_type": 0,
        "meta_classification_type": "U",
        "meta_norad_cat_id": 58990,
        "meta_element_set_no": 999,
        "meta_rev_at_epoch": 4510,
        "meta_bstar": 0,
        "meta_mean_motion_dot": -1.36e-06,
        "meta_mean_motion_ddot": 0,
        "tle_line1": "1 58990U 24033A   25336.84783382 -.00000136  00000+0  00000+0 0  9994",
        "tle_line2": "2 58990   0.0139 270.8956 0001635 344.3356 204.0476  1.00269649 45106"
      },
      "geometry": {
        "type": "Point",
        "coordinates": [
          -132.50704873922092,
          -0.028013101853115917
        ]
      }
    },
    {
      "type": "Feature",
      "properties": {
        "norad_id": 59051,
        "name": "METEOR-M2 4",
        "group": "weather",
        "lat": -28.744711090722188,
        "lon": -60.934231356383826,
        "alt_km": 819.8527888270355,
        "timestamp": "2025-12-03T04:52:29.284530+00:00",
        "meta_object_name": "METEOR-M2 4",
        "meta_object_id": "2024-039A",
        "meta_epoch": "2025-12-02T20:34:11.935776",
        "meta_mean_motion": 14.22398809,
        "meta_eccentricity": 0.0007566,
        "meta_inclination": 98.6751,
        "meta_ra_of_asc_node": 293.9216,
        "meta_arg_of_pericenter": 25.9187,
        "meta_mean_anomaly": 334.2368,
        "meta_ephemeris_type": 0,
        "meta_classification_type": "U",
        "meta_norad_cat_id": 59051,
        "meta_element_set_no": 999,
        "meta_rev_at_epoch": 9135,
        "meta_bstar": 4.9716e-05,
        "meta_mean_motion_dot": 6.7e-07,
        "meta_mean_motion_ddot": 0,
        "tle_line1": "1 59051U 24039A   25336.85708259  .00000067  00000+0  49716-4 0  9994",
        "tle_line2": "2 59051  98.6751 293.9216 0007566  25.9187 334.2368 14.22398809 91359"
      },
      "geometry": {
        "type": "Point",
        "coordinates": [
          -60.934231356383826,
          -28.744711090722188
        ]
      }
    },
    {
      "type": "Feature",
      "properties": {
        "norad_id": 60133,
        "name": "GOES 19",
        "group": "weather",
        "lat": -0.014661753383391275,
        "lon": 70.22335711257853,
        "alt_km": 35789.85634508516,
        "timestamp": "2025-12-03T04:52:29.284544+00:00",
        "meta_object_name": "GOES 19",
        "meta_object_id": "2024-119A",
        "meta_epoch": "2025-12-02T19:22:50.444256",
        "meta_mean_motion": 1.0027112,
        "meta_eccentricity": 0.0001243,
        "meta_inclination": 0.0033,
        "meta_ra_of_asc_node": 106.9022,
        "meta_arg_of_pericenter": 190.9214,
        "meta_mean_anomaly": 349.6149,
        "meta_ephemeris_type": 0,
        "meta_classification_type": "U",
        "meta_norad_cat_id": 60133,
        "meta_element_set_no": 999,
        "meta_rev_at_epoch": 499,
        "meta_bstar": 0,
        "meta_mean_motion_dot": -2.28e-06,
        "meta_mean_motion_ddot": 0,
        "tle_line1": "1 60133U 24119A   25336.80752829 -.00000228  00000+0  00000+0 0  9991",
        "tle_line2": "2 60133   0.0033 106.9022 0001243 190.9214 349.6149  1.00271120  4999"
      },
      "geometry": {
        "type": "Point",
        "coordinates": [
          70.22335711257853,
          -0.014661753383391275
        ]
      }
    },
    {
      "type": "Feature",
      "properties": {
        "norad_id": 65815,
        "name": "FENGYUN 3H",
        "group": "weather",
        "lat": -63.10841694926116,
        "lon": -65.51694471888291,
        "alt_km": 833.1668464944296,
        "timestamp": "2025-12-03T04:52:29.284556+00:00",
        "meta_object_name": "FENGYUN 3H",
        "meta_object_id": "2025-219A",
        "meta_epoch": "2025-12-02T20:43:18.376032",
        "meta_mean_motion": 14.19900112,
        "meta_eccentricity": 6.35e-05,
        "meta_inclination": 98.6569,
        "meta_ra_of_asc_node": 276.6689,
        "meta_arg_of_pericenter": 69.7764,
        "meta_mean_anomaly": 290.3481,
        "meta_ephemeris_type": 0,
        "meta_classification_type": "U",
        "meta_norad_cat_id": 65815,
        "meta_element_set_no": 999,
        "meta_rev_at_epoch": 952,
        "meta_bstar": 9.043e-05,
        "meta_mean_motion_dot": 1.49e-06,
        "meta_mean_motion_ddot": 0,
        "tle_line1": "1 65815U 25219A   25336.86340713  .00000149  00000+0  90430-4 0  9998",
        "tle_line2": "2 65815  98.6569 276.6689 0000635  69.7764 290.3481 14.19900112  9528"
      },
      "geometry": {
        "type": "Point",
        "coordinates": [
          -65.51694471888291,
          -63.10841694926116
        ]
      }
    }
  ]
}